[{"OBJECT_NAME":"STARLINK-31852","OBJECT_ID":"2024-097G","EPOCH":"2026-03-09T13:01:45.924960","MEAN_MOTION":15.27576223,"ECCENTRICITY":0.00013694,"INCLINATION":43.0008,"RA_OF_ASC_NODE":267.4595,"ARG_OF_PERICENTER":258.3775,"MEAN_ANOMALY":101.6923,"EPHEMERIS_TYPE":0,"CLASSIFICATION_TYPE":"U","NORAD_CAT_ID":59841,"ELEMENT_SET_NO":999,"REV_AT_EPOCH":10198,"BSTAR":-1.3423639e-5,"MEAN_MOTION_DOT":-6.31e-6,"MEAN_MOTION_DDOT":0},{"OBJECT_NAME":"OBJECT H","OBJECT_ID":"2026-023H","EPOCH":"2026-03-09T17:12:47.154816","MEAN_MOTION":15.23139098,"ECCENTRICITY":0.00239537,"INCLINATION":96.639,"RA_OF_ASC_NODE":144.1723,"ARG_OF_PERICENTER":117.6533,"MEAN_ANOMALY":242.7142,"EPHEMERIS_TYPE":0,"CLASSIFICATION_TYPE":"U","NORAD_CAT_ID":67681,"ELEMENT_SET_NO":999,"REV_AT_EPOCH":484,"BSTAR":0.00052586846,"MEAN_MOTION_DOT":0.00012465,"MEAN_MOTION_DDOT":0}]
